{
  "type": "FeatureCollection",
  "features": [
    {
      "type": "Feature",
      "properties": {
        "norad_id": 66849,
        "name": "STARLINK-36102",
        "group": "last-30-days",
        "lat": -41.1473832537996,
        "lon": -23.574558463921086,
        "alt_km": 407.6283626139366,
        "timestamp": "2025-12-25T07:41:08.449966+00:00",
        "meta_object_name": "STARLINK-36102",
        "meta_object_id": "2025-281B",
        "meta_epoch": "2025-12-24T22:00:03.000096",
        "meta_mean_motion": 15.55652529,
        "meta_eccentricity": 0.0001193,
        "meta_inclination": 43.0007,
        "meta_ra_of_asc_node": 48.4698,
        "meta_arg_of_pericenter": 277.4327,
        "meta_mean_anomaly": 266.4174,
        "meta_ephemeris_type": 0,
        "meta_classification_type": "U",
        "meta_norad_cat_id": 66849,
        "meta_element_set_no": 999,
        "meta_rev_at_epoch": 334,
        "meta_bstar": -0.032619302,
        "meta_mean_motion_dot": -0.02052218,
        "meta_mean_motion_ddot": 0,
        "tle_line1": "1 66849U 25281B   25358.91670139 -.02052218  00000+0 -32619-1 0  9993",
        "tle_line2": "2 66849  43.0007  48.4698 0001193 277.4327 266.4174 15.55652529  3349"
      },
      "geometry": {
        "type": "Point",
        "coordinates": [
          -23.574558463921086,
          -41.1473832537996
        ]
      }
    },
    {
      "type": "Feature",
      "properties": {
        "norad_id": 66850,
        "name": "STARLINK-36105",
        "group": "last-30-days",
        "lat": -40.667233322506576,
        "lon": -21.125244406995662,
        "alt_km": 407.58842896245733,
        "timestamp": "2025-12-25T07:41:08.449976+00:00",
        "meta_object_name": "STARLINK-36105",
        "meta_object_id": "2025-281C",
        "meta_epoch": "2025-12-24T22:00:03.000096",
        "meta_mean_motion": 15.55652216,
        "meta_eccentricity": 0.00012487,
        "meta_inclination": 43.0004,
        "meta_ra_of_asc_node": 48.4654,
        "meta_arg_of_pericenter": 277.3041,
        "meta_mean_anomaly": 268.4679,
        "meta_ephemeris_type": 0,
        "meta_classification_type": "U",
        "meta_norad_cat_id": 66850,
        "meta_element_set_no": 999,
        "meta_rev_at_epoch": 334,
        "meta_bstar": -0.032712034,
        "meta_mean_motion_dot": -0.02057436,
        "meta_mean_motion_ddot": 0,
        "tle_line1": "1 66850U 25281C   25358.91670139 -.02057436  00000+0 -32712-1 0  9996",
        "tle_line2": "2 66850  43.0004  48.4654 0001248 277.3041 268.4679 15.55652216  3348"
      },
      "geometry": {
        "type": "Point",
        "coordinates": [
          -21.125244406995662,
          -40.667233322506576
        ]
      }
    },
    {
      "type": "Feature",
      "properties": {
        "norad_id": 66851,
        "name": "STARLINK-36094",
        "group": "last-30-days",
        "lat": -40.13679895717014,
        "lon": -18.716833298689018,
        "alt_km": 407.61868016257085,
        "timestamp": "2025-12-25T07:41:08.449986+00:00",
        "meta_object_name": "STARLINK-36094",
        "meta_object_id": "2025-281D",
        "meta_epoch": "2025-12-24T22:00:03.000096",
        "meta_mean_motion": 15.55651178,
        "meta_eccentricity": 0.00011645,
        "meta_inclination": 43.0002,
        "meta_ra_of_asc_node": 48.4604,
        "meta_arg_of_pericenter": 280.077,
        "meta_mean_anomaly": 267.6114,
        "meta_ephemeris_type": 0,
        "meta_classification_type": "U",
        "meta_norad_cat_id": 66851,
        "meta_element_set_no": 999,
        "meta_rev_at_epoch": 334,
        "meta_bstar": -0.032680793,
        "meta_mean_motion_dot": -0.0205556,
        "meta_mean_motion_ddot": 0,
        "tle_line1": "1 66851U 25281D   25358.91670139 -.02055560  00000+0 -32681-1 0  9998",
        "tle_line2": "2 66851  43.0002  48.4604 0001164 280.0770 267.6114 15.55651178  3340"
      },
      "geometry": {
        "type": "Point",
        "coordinates": [
          -18.716833298689018,
          -40.13679895717014
        ]
      }
    },
    {
      "type": "Feature",
      "properties": {
        "norad_id": 66852,
        "name": "STARLINK-35992",
        "group": "last-30-days",
        "lat": -39.55596714460827,
        "lon": -16.34154126096604,
        "alt_km": 407.6280517568812,
        "timestamp": "2025-12-25T07:41:08.449998+00:00",
        "meta_object_name": "STARLINK-35992",
        "meta_object_id": "2025-281E",
        "meta_epoch": "2025-12-24T22:00:03.000096",
        "meta_mean_motion": 15.55648143,
        "meta_eccentricity": 0.00011323,
        "meta_inclination": 43.0002,
        "meta_ra_of_asc_node": 48.4563,
        "meta_arg_of_pericenter": 275.7763,
        "meta_mean_anomaly": 273.8294,
        "meta_ephemeris_type": 0,
        "meta_classification_type": "U",
        "meta_norad_cat_id": 66852,
        "meta_element_set_no": 999,
        "meta_rev_at_epoch": 334,
        "meta_bstar": -0.032560814,
        "meta_mean_motion_dot": -0.02048597,
        "meta_mean_motion_ddot": 0,
        "tle_line1": "1 66852U 25281E   25358.91670139 -.02048597  00000+0 -32561-1 0  9998",
        "tle_line2": "2 66852  43.0002  48.4563 0001132 275.7763 273.8294 15.55648143  3349"
      },
      "geometry": {
        "type": "Point",
        "coordinates": [
          -16.34154126096604,
          -39.55596714460827
        ]
      }
    },
    {
      "type": "Feature",
      "properties": {
        "norad_id": 66853,
        "name": "STARLINK-35986",
        "group": "last-30-days",
        "lat": -38.929156185960494,
        "lon": -14.01373492346803,
        "alt_km": 407.65071622239157,
        "timestamp": "2025-12-25T07:41:08.450008+00:00",
        "meta_object_name": "STARLINK-35986",
        "meta_object_id": "2025-281F",
        "meta_epoch": "2025-12-24T22:00:03.000096",
        "meta_mean_motion": 15.55651151,
        "meta_eccentricity": 0.00010434,
        "meta_inclination": 43.0004,
        "meta_ra_of_asc_node": 48.4512,
        "meta_arg_of_pericenter": 280.5275,
        "meta_mean_anomaly": 270.9935,
        "meta_ephemeris_type": 0,
        "meta_classification_type": "U",
        "meta_norad_cat_id": 66853,
        "meta_element_set_no": 999,
        "meta_rev_at_epoch": 334,
        "meta_bstar": -0.03264084,
        "meta_mean_motion_dot": -0.02053241,
        "meta_mean_motion_ddot": 0,
        "tle_line1": "1 66853U 25281F   25358.91670139 -.02053241  00000+0 -32641-1 0  9990",
        "tle_line2": "2 66853  43.0004  48.4512 0001043 280.5275 270.9935 15.55651151  3342"
      },
      "geometry": {
        "type": "Point",
        "coordinates": [
          -14.01373492346803,
          -38.929156185960494
        ]
      }
    },
    {
      "type": "Feature",
      "properties": {
        "norad_id": 66854,
        "name": "STARLINK-36087",
        "group": "last-30-days",
        "lat": -38.25596610099783,
        "lon": -11.727632371490639,
        "alt_km": 407.56525354139103,
        "timestamp": "2025-12-25T07:41:08.450018+00:00",
        "meta_object_name": "STARLINK-36087",
        "meta_object_id": "2025-281G",
        "meta_epoch": "2025-12-24T22:00:03.000096",
        "meta_mean_motion": 15.55647233,
        "meta_eccentricity": 0.00011123,
        "meta_inclination": 43.0001,
        "meta_ra_of_asc_node": 48.4458,
        "meta_arg_of_pericenter": 282.7372,
        "meta_mean_anomaly": 270.7016,
        "meta_ephemeris_type": 0,
        "meta_classification_type": "U",
        "meta_norad_cat_id": 66854,
        "meta_element_set_no": 999,
        "meta_rev_at_epoch": 334,
        "meta_bstar": -0.032542029,
        "meta_mean_motion_dot": -0.02047467,
        "meta_mean_motion_ddot": 0,
        "tle_line1": "1 66854U 25281G   25358.91670139 -.02047467  00000+0 -32542-1 0  9994",
        "tle_line2": "2 66854  43.0001  48.4458 0001112 282.7372 270.7016 15.55647233  3342"
      },
      "geometry": {
        "type": "Point",
        "coordinates": [
          -11.727632371490639,
          -38.25596610099783
        ]
      }
    },
    {
      "type": "Feature",
      "properties": {
        "norad_id": 66855,
        "name": "STARLINK-36090",
        "group": "last-30-days",
        "lat": -37.53887924300133,
        "lon": -9.481919422967302,
        "alt_km": 407.6162251988426,
        "timestamp": "2025-12-25T07:41:08.450031+00:00",
        "meta_object_name": "STARLINK-36090",
        "meta_object_id": "2025-281H",
        "meta_epoch": "2025-12-24T22:00:03.000096",
        "meta_mean_motion": 15.55647214,
        "meta_eccentricity": 9.756e-05,
        "meta_inclination": 43.0004,
        "meta_ra_of_asc_node": 48.4411,
        "meta_arg_of_pericenter": 280.5909,
        "meta_mean_anomaly": 274.7667,
        "meta_ephemeris_type": 0,
        "meta_classification_type": "U",
        "meta_norad_cat_id": 66855,
        "meta_element_set_no": 999,
        "meta_rev_at_epoch": 322,
        "meta_bstar": -0.032534779,
        "meta_mean_motion_dot": -0.02046976,
        "meta_mean_motion_ddot": 0,
        "tle_line1": "1 66855U 25281H   25358.91670139 -.02046976  00000+0 -32535-1 0  9991",
        "tle_line2": "2 66855  43.0004  48.4411 0000975 280.5909 274.7667 15.55647214  3225"
      },
      "geometry": {
        "type": "Point",
        "coordinates": [
          -9.481919422967302,
          -37.53887924300133
        ]
      }
    }
  ]
}